{
  "norad_id": 68271,
  "name": "STARLINK-37029",
  "history": [
    {
      "epoch": "2026-04-10T10:27:45.813888Z",
      "apogee_km": 328.467412602522,
      "perigee_km": 327.0243066111343,
      "latitude_deg": 2.171453226793716e-05,
      "longitude_deg": -177.48349484312553,
      "height_km": 328.9903786080216,
      "semi_major_axis_km": 6705.882859606828,
      "eccentricity": 0.0001076,
      "inclination_deg": 53.1577,
      "raan_deg": 178.1272,
      "arg_perigee_deg": 116.912,
      "mean_anomaly_deg": 243.2013,
      "mean_motion_rev_day": 15.80952486
    },
    {
      "epoch": "2026-04-11T13:46:25.634784Z",
      "apogee_km": 328.76701406617485,
      "perigee_km": 326.8705697682208,
      "latitude_deg": -4.5042924267440754e-05,
      "longitude_deg": 126.02620734742725,
      "height_km": 328.15537692115976,
      "semi_major_axis_km": 6705.9557919171975,
      "eccentricity": 0.0001414,
      "inclination_deg": 53.1578,
      "raan_deg": 172.4245,
      "arg_perigee_deg": 52.2008,
      "mean_anomaly_deg": 307.9142,
      "mean_motion_rev_day": 15.80926695
    },
    {
      "epoch": "2026-04-12T21:38:10.852800Z",
      "apogee_km": 328.4877532338487,
      "perigee_km": 326.8461724237495,
      "latitude_deg": 4.880185726677155e-06,
      "longitude_deg": 0.12398615319383655,
      "height_km": 328.24038974773384,
      "semi_major_axis_km": 6705.803962828799,
      "eccentricity": 0.0001224,
      "inclination_deg": 53.1587,
      "raan_deg": 165.7692,
      "arg_perigee_deg": 65.1882,
      "mean_anomaly_deg": 294.9268,
      "mean_motion_rev_day": 15.80980387
    },
    {
      "epoch": "2026-04-14T20:40:18.549120Z",
      "apogee_km": 329.81891619236467,
      "perigee_km": 325.63847951632306,
      "latitude_deg": -3.7802483195495044e-05,
      "longitude_deg": 2.838810029520309,
      "height_km": 328.28459958485746,
      "semi_major_axis_km": 6705.865697854344,
      "eccentricity": 0.0003117,
      "inclination_deg": 53.158,
      "raan_deg": 155.9478,
      "arg_perigee_deg": 80.1106,
      "mean_anomaly_deg": 280.0268,
      "mean_motion_rev_day": 15.80958555
    },
    {
      "epoch": "2026-04-15T10:19:37.348032Z",
      "apogee_km": 329.01786097608147,
      "perigee_km": 326.8241752771919,
      "latitude_deg": 2.3566029370968932e-05,
      "longitude_deg": 154.59772798391964,
      "height_km": 328.01765030906296,
      "semi_major_axis_km": 6706.058018126636,
      "eccentricity": 0.00016356,
      "inclination_deg": 53.1576,
      "raan_deg": 153.0958,
      "arg_perigee_deg": 41.5291,
      "mean_anomaly_deg": 318.5856,
      "mean_motion_rev_day": 15.80890546
    },
    {
      "epoch": "2026-04-16T19:42:24.842304Z",
      "apogee_km": 328.9063362439738,
      "perigee_km": 326.58744159518574,
      "latitude_deg": -6.898837963629447e-05,
      "longitude_deg": 5.558506801898144,
      "height_km": 328.340271466726,
      "semi_major_axis_km": 6705.8838889195795,
      "eccentricity": 0.0001729,
      "inclination_deg": 53.1573,
      "raan_deg": 146.1254,
      "arg_perigee_deg": 73.7953,
      "mean_anomaly_deg": 286.3259,
      "mean_motion_rev_day": 15.80952122
    },
    {
      "epoch": "2026-04-17T13:54:51.152544Z",
      "apogee_km": 328.78462759576905,
      "perigee_km": 326.9463781896766,
      "latitude_deg": 3.52656853960056e-05,
      "longitude_deg": 87.89861189857841,
      "height_km": 328.18378573851726,
      "semi_major_axis_km": 6706.002502892723,
      "eccentricity": 0.00013706,
      "inclination_deg": 53.1568,
      "raan_deg": 142.3228,
      "arg_perigee_deg": 49.2933,
      "mean_anomaly_deg": 310.8209,
      "mean_motion_rev_day": 15.80910177
    },
    {
      "epoch": "2026-04-21T20:00:01.999008Z",
      "apogee_km": 367.9121065603731,
      "perigee_km": 366.96098069072104,
      "latitude_deg": 15.68829102223643,
      "longitude_deg": -16.65930034509788,
      "height_km": 367.48274784802777,
      "semi_major_axis_km": 6745.573543625546,
      "eccentricity": 7.05e-05,
      "inclination_deg": 53.1603,
      "raan_deg": 121.1749,
      "arg_perigee_deg": 88.2646,
      "mean_anomaly_deg": 291.4677,
      "mean_motion_rev_day": 15.6701964
    },
    {
      "epoch": "2026-04-22T20:00:03.000384Z",
      "apogee_km": 380.41690441681294,
      "perigee_km": 378.71936888648634,
      "latitude_deg": -51.339847109758544,
      "longitude_deg": -145.99348136505625,
      "height_km": 398.129203677672,
      "semi_major_axis_km": 6757.705136651649,
      "eccentricity": 0.0001256,
      "inclination_deg": 53.1602,
      "raan_deg": 116.2802,
      "arg_perigee_deg": 96.9398,
      "mean_anomaly_deg": 159.8195,
      "mean_motion_rev_day": 15.62801808
    },
    {
      "epoch": "2026-04-23T14:00:04.000032Z",
      "apogee_km": 389.40137738018893,
      "perigee_km": 387.7788515526827,
      "latitude_deg": 20.108572381179066,
      "longitude_deg": -144.84173465778363,
      "height_km": 389.00068019099695,
      "semi_major_axis_km": 6766.7271144664355,
      "eccentricity": 0.00011989,
      "inclination_deg": 53.1598,
      "raan_deg": 112.6319,
      "arg_perigee_deg": 69.8364,
      "mean_anomaly_deg": 84.7653,
      "mean_motion_rev_day": 15.59677359
    },
    {
      "epoch": "2026-04-24T20:00:01.999008Z",
      "apogee_km": 404.79678627804515,
      "perigee_km": 403.01717793714033,
      "latitude_deg": -27.390155658047266,
      "longitude_deg": -68.99149533210876,
      "height_km": 412.64802584637664,
      "semi_major_axis_km": 6782.0439821075925,
      "eccentricity": 0.0001312,
      "inclination_deg": 53.1602,
      "raan_deg": 106.5839,
      "arg_perigee_deg": 96.6852,
      "mean_anomaly_deg": 228.5146,
      "mean_motion_rev_day": 15.54396677
    },
    {
      "epoch": "2026-04-25T20:00:01.000224Z",
      "apogee_km": 417.8733490060258,
      "perigee_km": 416.24114334809383,
      "latitude_deg": 18.450103364318768,
      "longitude_deg": 113.53720339633337,
      "height_km": 417.48830257650945,
      "semi_major_axis_km": 6795.1942461770595,
      "eccentricity": 0.0001201,
      "inclination_deg": 53.1595,
      "raan_deg": 101.7799,
      "arg_perigee_deg": 61.7543,
      "mean_anomaly_deg": 94.9818,
      "mean_motion_rev_day": 15.49886688
    },
    {
      "epoch": "2026-04-26T22:00:00.999936Z",
      "apogee_km": 419.75657455118835,
      "perigee_km": 418.02319675480885,
      "latitude_deg": 52.71217702852178,
      "longitude_deg": -10.240519675500163,
      "height_km": 424.47144040333603,
      "semi_major_axis_km": 6797.026885652998,
      "eccentricity": 0.00012751,
      "inclination_deg": 53.1592,
      "raan_deg": 96.5993,
      "arg_perigee_deg": 94.8402,
      "mean_anomaly_deg": 347.9564,
      "mean_motion_rev_day": 15.49259901
    },
    {
      "epoch": "2026-04-27T20:00:03.000384Z",
      "apogee_km": 419.7696157473856,
      "perigee_km": 418.14103242653437,
      "latitude_deg": 17.012437450460343,
      "longitude_deg": 103.20926563321909,
      "height_km": 418.75136792946245,
      "semi_major_axis_km": 6797.09232408696,
      "eccentricity": 0.0001198,
      "inclination_deg": 53.1593,
      "raan_deg": 92.216,
      "arg_perigee_deg": 104.6262,
      "mean_anomaly_deg": 53.9517,
      "mean_motion_rev_day": 15.49237528
    },
    {
      "epoch": "2026-04-28T20:00:01.000224Z",
      "apogee_km": 419.78260055461124,
      "perigee_km": 418.0330412177145,
      "latitude_deg": -16.75300773574985,
      "longitude_deg": -82.33279365516275,
      "height_km": 423.83625224907547,
      "semi_major_axis_km": 6797.044820886163,
      "eccentricity": 0.0001287,
      "inclination_deg": 53.1597,
      "raan_deg": 87.4344,
      "arg_perigee_deg": 94.8319,
      "mean_anomaly_deg": 244.2897,
      "mean_motion_rev_day": 15.49253769
    },
    {
      "epoch": "2026-04-29T20:51:42.255648Z",
      "apogee_km": 419.14094187931823,
      "perigee_km": 418.1309414201887,
      "latitude_deg": -4.081189823286792e-05,
      "longitude_deg": -88.26634743183709,
      "height_km": 419.64278233017797,
      "semi_major_axis_km": 6796.772941649753,
      "eccentricity": 7.43e-05,
      "inclination_deg": 53.1597,
      "raan_deg": 82.4839,
      "arg_perigee_deg": 101.4925,
      "mean_anomaly_deg": 258.6167,
      "mean_motion_rev_day": 15.49346728
    },
    {
      "epoch": "2026-04-30T06:09:03.279744Z",
      "apogee_km": 419.46344339789994,
      "perigee_km": 417.96813578419005,
      "latitude_deg": -1.6924939183334086e-05,
      "longitude_deg": 130.16327708363542,
      "height_km": 419.8662687002452,
      "semi_major_axis_km": 6796.852789591045,
      "eccentricity": 0.00011,
      "inclination_deg": 53.1598,
      "raan_deg": 80.6326,
      "arg_perigee_deg": 109.102,
      "mean_anomaly_deg": 251.0108,
      "mean_motion_rev_day": 15.49319426
    },
    {
      "epoch": "2026-05-02T10:47:24.271872Z",
      "apogee_km": 419.70368944843267,
      "perigee_km": 417.6374599457249,
      "latitude_deg": -2.3943581293789773e-06,
      "longitude_deg": 47.92690434573003,
      "height_km": 418.6510059124794,
      "semi_major_axis_km": 6796.807574697079,
      "eccentricity": 0.000152,
      "inclination_deg": 53.1617,
      "raan_deg": 70.1455,
      "arg_perigee_deg": 26.3104,
      "mean_anomaly_deg": 333.7982,
      "mean_motion_rev_day": 15.49334886
    },
    {
      "epoch": "2026-05-03T20:50:59.161056Z",
      "apogee_km": 419.40055877812483,
      "perigee_km": 417.93924529418746,
      "latitude_deg": -6.0613008477131375e-05,
      "longitude_deg": -111.15289629007322,
      "height_km": 419.6417770240856,
      "semi_major_axis_km": 6796.806902036156,
      "eccentricity": 0.0001075,
      "inclination_deg": 53.1606,
      "raan_deg": 63.3599,
      "arg_perigee_deg": 95.183,
      "mean_anomaly_deg": 264.9301,
      "mean_motion_rev_day": 15.49335116
    }
  ]
}